0 YAOGAN 1 DEB
1 36365U 06015J   19089.93770816 +.00000341 +00000-0 +44150-4 0  9999
2 36365 098.0269 095.2403 0021110 275.2291 084.6516 14.87271847494641
0 YAOGAN 1 DEB
1 36365U 06015J   19090.00498649  .00000333  00000-0  43287-4 0  9991
2 36365  98.0269  95.3083 0021090 274.8657  85.0151 14.87271862494663
0 COSMOS 2251 DEB
1 36366U 93036AYT 19089.35600307 +.00000524 +00000-0 +25788-3 0  9990
2 36366 074.0732 334.7914 0112935 247.1720 111.7464 14.16791983514894
0 COSMOS 2251 DEB
1 36368U 93036AYV 19089.98983227  .00001085  00000-0  51664-3 0  9991
2 36368  74.1629  94.0629 0161698 268.2189  90.0427 14.13888351484442
0 COSMOS 2251 DEB
1 36371U 93036AYY 19089.27189880 +.00000595 +00000-0 +19254-3 0  9994
2 36371 074.0250 071.2594 0022498 338.7071 021.3146 14.41067753359880
0 COSMOS 2251 DEB
1 36378U 93036AZF 19090.47241274  .00001157  00000-0  12837-3 0  9996
2 36378  74.0614  15.5699 0083660 349.9922   9.9586 14.86092750511317
0 COSMOS 2251 DEB
1 36384U 93036AZM 19090.82400431  .00000961  00000-0  24771-3 0  9996
2 36384  74.0328 358.9279 0015402 298.7585  61.2028 14.51367667514374
0 COSMOS 2251 DEB
1 36385U 93036AZN 19089.37581415 +.00000538 +00000-0 +13625-3 0  9993
2 36385 073.9863 075.2510 0220508 103.2478 259.3374 14.39712744496593
0 COSMOS 2251 DEB
1 36387U 93036AZQ 19090.80471273  .00001134  00000-0  36346-3 0  9993
2 36387  73.9996 119.5866 0054731  71.2208  50.3609 14.39814407494975
0 IRIDIUM 33 DEB
1 36390U 97051VU  19090.30589774  .00000413  00000-0  99307-4 0  9995
2 36390  86.3005 307.3853 0047621 151.2626 209.1218 14.50160866527089
0 SDO
1 36395U 10005A   19089.60767420 -.00000069 +00000-0 +00000-0 0  9997
2 36395 029.6115 128.9204 0000702 009.7149 165.6901 01.00276327033638
0 SDO
1 36395U 10005A   19090.11016288 -.00000066  00000-0  00000+0 0  9990
2 36395  29.6122 128.9118 0000690  10.0512 346.7602  1.00276325 33600
0 ATLAS 5 CENTAUR R/B
1 36396U 10005B   19089.77787144 -.00000178 +00000-0 +00000-0 0  9992
2 36396 028.6815 131.4516 6353191 218.6334 083.8129 02.28848777076338
0 INTELSAT 16
1 36397U 10006A   19089.89983712 -.00000261 +00000-0 +00000-0 0  9999
2 36397 000.0221 188.8328 0001929 201.0458 045.8558 01.00269068033434
0 INTELSAT 16
1 36397U 10006A   19090.47411105 -.00000260  00000-0  00000+0 0  9995
2 36397   0.0226 187.7301 0001913 202.1944 253.1141  1.00268806 33311
0 BREEZE-M R/B
1 36398U 10006B   19089.83193414 -.00000202 +00000-0 +00000-0 0  9991
2 36398 007.6589 061.4950 0480481 011.9097 349.2351 00.86942793028974
0 COSMOS 2459 (GLONASS)
1 36400U 10007A   19089.65674992 -.00000049 +00000-0 +10000-3 0  9994
2 36400 065.7267 042.7897 0028215 347.4783 303.3628 02.13102158070655
0 COSMOS 2459 (GLONASS)
1 36400U 10007A   19090.13240102 -.00000051  00000-0  10000-3 0  9994
2 36400  65.7269  42.7738 0028212 347.4843 308.2581  2.13102157 70667
0 COSMOS 2460 (GLONASS)
1 36402U 10007C   19089.72683340 -.00000050 +00000-0 +10000-3 0  9993
2 36402 065.7113 042.7247 0002562 312.3708 342.8451 02.13101507070650
0 SL-12 R/B(2)
1 36403U 10007D   19089.72489226 -.00000050 +00000-0 +00000-0 0  9997
2 36403 065.7182 042.5103 0017423 195.6184 096.6851 02.13314035070715
0 SL-12 R/B(AUX MOTOR)
1 36406U 10007G   19089.95913472 +.00000031 +00000-0 +18736-3 0  9996
2 36406 064.9639 081.5213 5538655 051.9025 346.2976 04.22622241071827
0 SL-12 R/B(AUX MOTOR)
1 36407U 10007H   19089.71812516 +.00000057 +00000-0 +72770-4 0  9995
2 36407 065.0856 064.2593 5733302 031.0389 352.8120 04.24391536140360
0 SL-12 R/B(AUX MOTOR)
1 36407U 10007H   19089.95375835  .00000052  00000-0  61642-4 0  9990
2 36407  65.0855  64.1736 5733322  31.0281 352.8138  4.24391549140374
0 GOES 15
1 36411U 10008A   19090.53561236  .00000038  00000-0  00000+0 0  9994
2 36411   0.0454  99.5924 0000866 167.6595 346.0503  1.00279240 33256
0 GOES 15
1 36411U 10008A   19089.63919178 +.00000037 +00000-0 +00000-0 0  9995
2 36411 000.0433 099.9973 0000858 168.9239 020.7630 01.00278948033241
0 DELTA 4 R/B
1 36412U 10008B   19089.74550692 -.00000147 +00000-0 +00000-0 0  9993
2 36412 012.6006 322.4958 5242940 213.3236 102.4974 01.92896405063866
0 YAOGAN 9A
1 36413U 10009A   19090.82943425 -.00000083  00000-0  91048-5 0  9992
2 36413  63.3945 313.0357 0305734   6.6201 353.8705 13.45189692445718
0 YAOGAN 9B
1 36414U 10009B   19090.82954503 -.00000090  00000-0  67949-6 0  9994
2 36414  63.3964 312.5264 0305728   6.1143 354.3453 13.45189009445734
0 YAOGAN 9C
1 36415U 10009C   19090.90408004 -.00000237  00000-0 -18693-3 0  9997
2 36415  63.3954 313.0434 0306769   6.3968 354.0836 13.45189420445719
0 YAOGAN 9C
1 36415U 10009C   19089.93767382 -.00000213 +00000-0 -15576-3 0  9996
2 36415 063.3954 315.5305 0306604 006.3751 354.1040 13.45189511445585
0 CZ-4C R/B
1 36416U 10009D   19089.88924893 -.00000082 +00000-0 +11074-4 0  9996
2 36416 063.4315 315.3771 0451101 355.3326 004.3570 13.69547500453461
0 CZ-4C DEB
1 36417U 10009E   19089.93760500 -.00000060 +00000-0 +38866-4 0  9990
2 36417 063.3957 318.4573 0304696 006.0267 078.8803 13.45122381445182
0 CZ-4C DEB
1 36417U 10009E   19090.90365786 -.00000055  00000-0  45153-4 0  9997
2 36417  63.3955 315.9721 0304767   6.0322  76.9318 13.45122433445647
0 CZ-4C DEB
1 36418U 10009F   19089.96518610 -.00000058 +00000-0 +41802-4 0  9998
2 36418 063.3963 321.8569 0303427 005.7273 079.4460 13.44928184445187
0 COSMOS 2251 DEB
1 36419U 93036AZS 19082.55427659  .00001018  00000-0  36714-3 0  9991
2 36419  73.8489 149.6505 0104510 205.3216 154.2793 14.31966112505616
0 COSMOS 2251 DEB
1 36420U 93036AZT 19090.35352147  .00000049  00000-0  26514-4 0  9990
2 36420  74.0363  85.4767 0017680  52.1208  11.7974 14.34826719500286
0 COSMOS 2251 DEB
1 36422U 93036AZV 19090.03298304  .00000983  00000-0  12927-3 0  9990
2 36422  74.0077 105.3530 0119197 229.0505 130.0307 14.76971055524383
0 COSMOS 2251 DEB
1 36424U 93036AZX 19089.28958136 +.00001291 +00000-0 +49873-3 0  9996
2 36424 074.1793 321.4706 0112411 098.2410 263.1505 14.27649107487731
0 COSMOS 2251 DEB
1 36441U 93036BAQ 19088.09455361 +.00000589 +00000-0 +63230-4 0  9998
2 36441 073.8422 256.4580 0169085 147.6232 213.5459 14.81485342505212
0 COSMOS 2251 DEB
1 36441U 93036BAQ 19090.12040773  .00000578  00000-0  62131-4 0  9999
2 36441  73.8419 252.4083 0169054 143.1605 218.1330 14.81487681507234
0 COSMOS 2251 DEB
1 36442U 93036BAR 19090.20268091  .00000866  00000-0  25365-3 0  9991
2 36442  73.9912  34.2260 0036713  18.7208 341.5290 14.45073317503091
0 COSMOS 2251 DEB
1 36448U 93036BAX 19090.41089175  .00001019  00000-0  31988-3 0  9993
2 36448  74.0870 128.0630 0050702 319.8488  39.8925 14.41071207486379
0 COSMOS 2251 DEB
1 36451U 93036BBA 19090.06519998  .00000327  00000-0  16757-3 0  9997
2 36451  73.9436   1.4438 0209958 341.6340  75.5031 14.08637790497676
0 COSMOS 2251 DEB
1 36453U 93036BBC 19090.55203882  .00000387  00000-0  13118-3 0  9999
2 36453  73.9324  40.1033 0085676 118.5120   4.0414 14.38068393494120
0 COSMOS 2251 DEB
1 36461U 93036BBL 19089.43771431 +.00008068 +00000-0 +27133-3 0  9999
2 36461 073.9322 122.6212 0041934 211.7697 148.0975 15.30089009510193
0 COSMOS 2251 DEB
1 36461U 93036BBL 19090.41847420  .00006832  00000-0  23000-3 0  9997
2 36461  73.9319 120.5199 0041983 209.5220 150.3612 15.30101584510345
0 COSMOS 2251 DEB
1 36470U 93036BBV 19090.88689746  .00000649  00000-0  17509-3 0  9990
2 36470  73.8674 294.1107 0065643 257.2544 102.1273 14.48802752498765
0 COSMOS 2251 DEB
1 36479U 93036BCE 19090.02082280  .00002118  00000-0  14792-3 0  9999
2 36479  74.0273 301.1772 0046866 285.7526  73.8498 15.05228940518582
0 IRIDIUM 33 DEB
1 36483U 97051VZ  19090.48654619  .00000253  00000-0  78687-4 0  9998
2 36483  86.3884   8.5006 0007514 257.8197 102.2159 14.37035177506647
0 IRIDIUM 33 DEB
1 36488U 97051WE  19090.38380629  .00069178  00000-0  16757-2 0  9998
2 36488  86.4241 324.5874 0007809  36.8234 323.3555 15.40795887518463
0 IRIDIUM 33 DEB
1 36492U 97051WJ  19090.18054187  .00001494  00000-0  32781-3 0  9991
2 36492  86.4280   6.2043 0015401  22.8064 337.3825 14.56911978518637
0 IRIDIUM 33 DEB
1 36493U 97051WK  19089.99869351  .00000455  00000-0  12782-3 0  9991
2 36493  86.3679 350.0423 0014007 240.4872 119.4933 14.43797276516453
0 IRIDIUM 33 DEB
1 36495U 97051WM  19089.92823711  .00007784  00000-0  68186-3 0  9997
2 36495  86.3907 329.9031 0005328 195.1063 165.0009 14.96549988496128
0 IRIDIUM 33 DEB
1 36495U 97051WM  19089.92823711 +.00007784 +00000-0 +68186-3 0  9997
2 36495 086.3907 329.9031 0005328 195.1063 165.0009 14.96549988333803
0 IRIDIUM 33 DEB
1 36497U 97051WP  19089.81092684 +.00000662 +00000-0 +21238-3 0  9999
2 36497 086.1580 280.2288 0070500 284.0975 135.1645 14.36688272303374
0 IRIDIUM 33 DEB
1 36497U 97051WP  19090.31139213  .00000665  00000-0  21321-3 0  9992
2 36497  86.1580 280.0049 0070481 282.4142 203.6584 14.36688912508206
0 ECHOSTAR 14
1 36499U 10010A   19089.64993352 -.00000017 +00000-0 +00000-0 0  9990
2 36499 000.0164 216.5824 0002553 148.8115 297.4074 01.00272095020141
0 ECHOSTAR 14
1 36499U 10010A   19090.04597564 -.00000016  00000-0  00000+0 0  9999
2 36499   0.0170 214.4891 0002596 150.9074  80.3720  1.00272713 33119
0 BREEZE-M R/B
1 36500U 10010B   19089.83143431 -.00000070 +00000-0 +00000-0 0  9998
2 36500 026.8786 068.0326 6402008 183.0698 167.2322 02.24376896073991
0 CRYOSAT 2
1 36508U 10013A   19089.94871834 +.00000039 +00000-0 +88610-5 0  9998
2 36508 092.0311 000.0767 0004996 292.1364 067.9313 14.52175137475769
0 CRYOSAT 2
1 36508U 10013A   19090.22434667  .00000032  00000-0  72934-5 0  9995
2 36508  92.0311   0.1435 0004982 290.7918  69.2755 14.52175161475780
